<?xml version="1.0" encoding="UTF-8"?>
<!-- Source: https://www.camptocamp.org/routes/53835 | License: CC BY-SA (Camptocamp.org contributors) | Retrieved: 2026-07-01 -->
<gpx version="1.1" creator="AIMETEO ingest (camptocamp import)" xmlns="http://www.topografix.com/GPX/1/1">
  <trk>
    <name>Gran Paradiso — via normale (C2C 53835)</name>
    <trkseg>
      <trkpt lat="45.524651" lon="7.200858"><ele>1989.6</ele></trkpt>
      <trkpt lat="45.524421" lon="7.202615"><ele>1940.6</ele></trkpt>
      <trkpt lat="45.522516" lon="7.202767"><ele>1947.3</ele></trkpt>
      <trkpt lat="45.521633" lon="7.203482"><ele>1957.4</ele></trkpt>
      <trkpt lat="45.520870" lon="7.203508"><ele>1956.9</ele></trkpt>
      <trkpt lat="45.519717" lon="7.204458"><ele>1961.2</ele></trkpt>
      <trkpt lat="45.519288" lon="7.204460"><ele>1963.6</ele></trkpt>
      <trkpt lat="45.519104" lon="7.204750"><ele>1962.7</ele></trkpt>
      <trkpt lat="45.518999" lon="7.204537"><ele>1964.1</ele></trkpt>
      <trkpt lat="45.519039" lon="7.204768"><ele>1964.6</ele></trkpt>
      <trkpt lat="45.518940" lon="7.204527"><ele>1966.5</ele></trkpt>
      <trkpt lat="45.518938" lon="7.204976"><ele>1971.3</ele></trkpt>
      <trkpt lat="45.517742" lon="7.205324"><ele>1974.7</ele></trkpt>
      <trkpt lat="45.516320" lon="7.206576"><ele>1993.0</ele></trkpt>
      <trkpt lat="45.515971" lon="7.206625"><ele>2001.1</ele></trkpt>
      <trkpt lat="45.515580" lon="7.207428"><ele>2017.9</ele></trkpt>
      <trkpt lat="45.515633" lon="7.207988"><ele>2029.5</ele></trkpt>
      <trkpt lat="45.515162" lon="7.207749"><ele>2027.6</ele></trkpt>
      <trkpt lat="45.514992" lon="7.208169"><ele>2037.2</ele></trkpt>
      <trkpt lat="45.514120" lon="7.208587"><ele>2057.4</ele></trkpt>
      <trkpt lat="45.514901" lon="7.209025"><ele>2081.9</ele></trkpt>
      <trkpt lat="45.514503" lon="7.209649"><ele>2116.5</ele></trkpt>
      <trkpt lat="45.515061" lon="7.209776"><ele>2125.1</ele></trkpt>
      <trkpt lat="45.514945" lon="7.210362"><ele>2147.7</ele></trkpt>
      <trkpt lat="45.515256" lon="7.210542"><ele>2154.9</ele></trkpt>
      <trkpt lat="45.515267" lon="7.210896"><ele>2166.5</ele></trkpt>
      <trkpt lat="45.514872" lon="7.210977"><ele>2184.7</ele></trkpt>
      <trkpt lat="45.514557" lon="7.210548"><ele>2192.4</ele></trkpt>
      <trkpt lat="45.513995" lon="7.211005"><ele>2218.4</ele></trkpt>
      <trkpt lat="45.514325" lon="7.211424"><ele>2231.4</ele></trkpt>
      <trkpt lat="45.513882" lon="7.211476"><ele>2245.3</ele></trkpt>
      <trkpt lat="45.513964" lon="7.211852"><ele>2262.1</ele></trkpt>
      <trkpt lat="45.513796" lon="7.211842"><ele>2266.9</ele></trkpt>
      <trkpt lat="45.514348" lon="7.212582"><ele>2291.9</ele></trkpt>
      <trkpt lat="45.513970" lon="7.212803"><ele>2303.9</ele></trkpt>
      <trkpt lat="45.514411" lon="7.213275"><ele>2318.4</ele></trkpt>
      <trkpt lat="45.513949" lon="7.213539"><ele>2338.5</ele></trkpt>
      <trkpt lat="45.514199" lon="7.213947"><ele>2347.7</ele></trkpt>
      <trkpt lat="45.514157" lon="7.215370"><ele>2376.5</ele></trkpt>
      <trkpt lat="45.513493" lon="7.216437"><ele>2399.6</ele></trkpt>
      <trkpt lat="45.514102" lon="7.216660"><ele>2424.6</ele></trkpt>
      <trkpt lat="45.514033" lon="7.217094"><ele>2442.8</ele></trkpt>
      <trkpt lat="45.514377" lon="7.217729"><ele>2460.6</ele></trkpt>
      <trkpt lat="45.514029" lon="7.217810"><ele>2474.6</ele></trkpt>
      <trkpt lat="45.514611" lon="7.218397"><ele>2497.6</ele></trkpt>
      <trkpt lat="45.514394" lon="7.218931"><ele>2509.2</ele></trkpt>
      <trkpt lat="45.514585" lon="7.219352"><ele>2521.7</ele></trkpt>
      <trkpt lat="45.514470" lon="7.220053"><ele>2535.6</ele></trkpt>
      <trkpt lat="45.513977" lon="7.221287"><ele>2564.0</ele></trkpt>
      <trkpt lat="45.514680" lon="7.221187"><ele>2588.0</ele></trkpt>
      <trkpt lat="45.514880" lon="7.222706"><ele>2607.7</ele></trkpt>
      <trkpt lat="45.513798" lon="7.224560"><ele>2651.0</ele></trkpt>
      <trkpt lat="45.513109" lon="7.227982"><ele>2688.0</ele></trkpt>
      <trkpt lat="45.512604" lon="7.229172"><ele>2716.3</ele></trkpt>
      <trkpt lat="45.512963" lon="7.229903"><ele>2725.0</ele></trkpt>
      <trkpt lat="45.512692" lon="7.229709"><ele>2726.4</ele></trkpt>
      <trkpt lat="45.512597" lon="7.229448"><ele>2726.0</ele></trkpt>
      <trkpt lat="45.512776" lon="7.229706"><ele>2726.0</ele></trkpt>
      <trkpt lat="45.513257" lon="7.229064"><ele>2726.9</ele></trkpt>
      <trkpt lat="45.512531" lon="7.229527"><ele>2726.9</ele></trkpt>
      <trkpt lat="45.512722" lon="7.229555"><ele>2727.4</ele></trkpt>
    </trkseg>
    <trkseg>
      <trkpt lat="45.512636" lon="7.229550"><ele>2727.4</ele></trkpt>
      <trkpt lat="45.512566" lon="7.229807"><ele>2726.4</ele></trkpt>
      <trkpt lat="45.513501" lon="7.231617"><ele>2742.3</ele></trkpt>
      <trkpt lat="45.515440" lon="7.232633"><ele>2787.0</ele></trkpt>
      <trkpt lat="45.517054" lon="7.232478"><ele>2827.8</ele></trkpt>
      <trkpt lat="45.517491" lon="7.233114"><ele>2844.2</ele></trkpt>
      <trkpt lat="45.517527" lon="7.234718"><ele>2878.8</ele></trkpt>
      <trkpt lat="45.518456" lon="7.236220"><ele>2910.5</ele></trkpt>
      <trkpt lat="45.518638" lon="7.239343"><ele>2972.5</ele></trkpt>
      <trkpt lat="45.518748" lon="7.239585"><ele>2977.8</ele></trkpt>
      <trkpt lat="45.519096" lon="7.239534"><ele>2985.5</ele></trkpt>
      <trkpt lat="45.519301" lon="7.241602"><ele>3022.5</ele></trkpt>
      <trkpt lat="45.519745" lon="7.242817"><ele>3045.1</ele></trkpt>
      <trkpt lat="45.519958" lon="7.242836"><ele>3051.4</ele></trkpt>
      <trkpt lat="45.519837" lon="7.243330"><ele>3061.5</ele></trkpt>
      <trkpt lat="45.520132" lon="7.243622"><ele>3070.6</ele></trkpt>
      <trkpt lat="45.519670" lon="7.244937"><ele>3098.5</ele></trkpt>
      <trkpt lat="45.519771" lon="7.246264"><ele>3118.2</ele></trkpt>
      <trkpt lat="45.519045" lon="7.247698"><ele>3162.4</ele></trkpt>
      <trkpt lat="45.519312" lon="7.248459"><ele>3181.6</ele></trkpt>
      <trkpt lat="45.519028" lon="7.248635"><ele>3190.8</ele></trkpt>
      <trkpt lat="45.519913" lon="7.249953"><ele>3229.2</ele></trkpt>
      <trkpt lat="45.518686" lon="7.249804"><ele>3264.8</ele></trkpt>
      <trkpt lat="45.518833" lon="7.250862"><ele>3288.3</ele></trkpt>
      <trkpt lat="45.517057" lon="7.250426"><ele>3333.0</ele></trkpt>
      <trkpt lat="45.514965" lon="7.251547"><ele>3405.1</ele></trkpt>
      <trkpt lat="45.513857" lon="7.252824"><ele>3452.7</ele></trkpt>
      <trkpt lat="45.514503" lon="7.253406"><ele>3472.9</ele></trkpt>
      <trkpt lat="45.514794" lon="7.254093"><ele>3492.6</ele></trkpt>
      <trkpt lat="45.514534" lon="7.254170"><ele>3501.7</ele></trkpt>
      <trkpt lat="45.514757" lon="7.254397"><ele>3509.4</ele></trkpt>
      <trkpt lat="45.514602" lon="7.254453"><ele>3513.8</ele></trkpt>
      <trkpt lat="45.515094" lon="7.254729"><ele>3527.7</ele></trkpt>
      <trkpt lat="45.514762" lon="7.254965"><ele>3536.3</ele></trkpt>
      <trkpt lat="45.515127" lon="7.255109"><ele>3543.6</ele></trkpt>
      <trkpt lat="45.513681" lon="7.255565"><ele>3597.4</ele></trkpt>
      <trkpt lat="45.513863" lon="7.257757"><ele>3647.4</ele></trkpt>
      <trkpt lat="45.513631" lon="7.258631"><ele>3667.1</ele></trkpt>
      <trkpt lat="45.514057" lon="7.258763"><ele>3680.5</ele></trkpt>
      <trkpt lat="45.513980" lon="7.259811"><ele>3703.6</ele></trkpt>
      <trkpt lat="45.514391" lon="7.259964"><ele>3718.0</ele></trkpt>
      <trkpt lat="45.513325" lon="7.263072"><ele>3775.2</ele></trkpt>
      <trkpt lat="45.513330" lon="7.265087"><ele>3812.7</ele></trkpt>
      <trkpt lat="45.512939" lon="7.267509"><ele>3861.3</ele></trkpt>
      <trkpt lat="45.513234" lon="7.267270"><ele>3867.5</ele></trkpt>
      <trkpt lat="45.513270" lon="7.267701"><ele>3886.3</ele></trkpt>
      <trkpt lat="45.514032" lon="7.267276"><ele>3903.6</ele></trkpt>
      <trkpt lat="45.514518" lon="7.267483"><ele>3923.3</ele></trkpt>
      <trkpt lat="45.514599" lon="7.267760"><ele>3927.1</ele></trkpt>
      <trkpt lat="45.514270" lon="7.268547"><ele>3946.3</ele></trkpt>
      <trkpt lat="45.516171" lon="7.269123"><ele>3988.2</ele></trkpt>
      <trkpt lat="45.516203" lon="7.268857"><ele>3994.4</ele></trkpt>
      <trkpt lat="45.516686" lon="7.268620"><ele>4019.9</ele></trkpt>
      <trkpt lat="45.516064" lon="7.268703"><ele>3993.9</ele></trkpt>
      <trkpt lat="45.515723" lon="7.267804"><ele>3955.5</ele></trkpt>
      <trkpt lat="45.514586" lon="7.267827"><ele>3933.8</ele></trkpt>
      <trkpt lat="45.513072" lon="7.267066"><ele>3853.1</ele></trkpt>
      <trkpt lat="45.513263" lon="7.266337"><ele>3835.3</ele></trkpt>
      <trkpt lat="45.513074" lon="7.266214"><ele>3830.0</ele></trkpt>
      <trkpt lat="45.513235" lon="7.265412"><ele>3812.7</ele></trkpt>
      <trkpt lat="45.513006" lon="7.264106"><ele>3795.9</ele></trkpt>
      <trkpt lat="45.513086" lon="7.263200"><ele>3783.4</ele></trkpt>
      <trkpt lat="45.513713" lon="7.261876"><ele>3736.3</ele></trkpt>
      <trkpt lat="45.513636" lon="7.261536"><ele>3731.5</ele></trkpt>
      <trkpt lat="45.514100" lon="7.260387"><ele>3718.5</ele></trkpt>
      <trkpt lat="45.513742" lon="7.258708"><ele>3669.0</ele></trkpt>
      <trkpt lat="45.513954" lon="7.256222"><ele>3605.1</ele></trkpt>
      <trkpt lat="45.513817" lon="7.255918"><ele>3595.9</ele></trkpt>
      <trkpt lat="45.514224" lon="7.255632"><ele>3579.1</ele></trkpt>
      <trkpt lat="45.514279" lon="7.254869"><ele>3540.2</ele></trkpt>
      <trkpt lat="45.514448" lon="7.254785"><ele>3530.6</ele></trkpt>
      <trkpt lat="45.514056" lon="7.254072"><ele>3505.6</ele></trkpt>
      <trkpt lat="45.514438" lon="7.253149"><ele>3469.5</ele></trkpt>
      <trkpt lat="45.513767" lon="7.252658"><ele>3453.2</ele></trkpt>
      <trkpt lat="45.513877" lon="7.251965"><ele>3429.2</ele></trkpt>
      <trkpt lat="45.513672" lon="7.251503"><ele>3419.6</ele></trkpt>
      <trkpt lat="45.514011" lon="7.250887"><ele>3401.3</ele></trkpt>
      <trkpt lat="45.515689" lon="7.249562"><ele>3339.8</ele></trkpt>
      <trkpt lat="45.516146" lon="7.248263"><ele>3304.7</ele></trkpt>
      <trkpt lat="45.516629" lon="7.247627"><ele>3280.6</ele></trkpt>
      <trkpt lat="45.516951" lon="7.247951"><ele>3272.9</ele></trkpt>
      <trkpt lat="45.517844" lon="7.247922"><ele>3228.7</ele></trkpt>
      <trkpt lat="45.518179" lon="7.247410"><ele>3200.4</ele></trkpt>
      <trkpt lat="45.518810" lon="7.247551"><ele>3171.5</ele></trkpt>
      <trkpt lat="45.519281" lon="7.247128"><ele>3143.2</ele></trkpt>
      <trkpt lat="45.520289" lon="7.245065"><ele>3102.3</ele></trkpt>
      <trkpt lat="45.520733" lon="7.243257"><ele>3084.5</ele></trkpt>
      <trkpt lat="45.520606" lon="7.242556"><ele>3059.5</ele></trkpt>
      <trkpt lat="45.519430" lon="7.241075"><ele>3014.3</ele></trkpt>
      <trkpt lat="45.519156" lon="7.240296"><ele>2994.6</ele></trkpt>
      <trkpt lat="45.519488" lon="7.239255"><ele>2981.2</ele></trkpt>
      <trkpt lat="45.518552" lon="7.237420"><ele>2933.6</ele></trkpt>
      <trkpt lat="45.518449" lon="7.236370"><ele>2911.0</ele></trkpt>
      <trkpt lat="45.517411" lon="7.235429"><ele>2887.9</ele></trkpt>
      <trkpt lat="45.516806" lon="7.234254"><ele>2885.5</ele></trkpt>
      <trkpt lat="45.516088" lon="7.234220"><ele>2875.0</ele></trkpt>
      <trkpt lat="45.516495" lon="7.233521"><ele>2851.9</ele></trkpt>
      <trkpt lat="45.516366" lon="7.233107"><ele>2830.7</ele></trkpt>
      <trkpt lat="45.515306" lon="7.232871"><ele>2793.7</ele></trkpt>
      <trkpt lat="45.515215" lon="7.232383"><ele>2780.3</ele></trkpt>
      <trkpt lat="45.513498" lon="7.231498"><ele>2743.3</ele></trkpt>
      <trkpt lat="45.512560" lon="7.229688"><ele>2726.9</ele></trkpt>
      <trkpt lat="45.512661" lon="7.229493"><ele>2725.0</ele></trkpt>
      <trkpt lat="45.512496" lon="7.229491"><ele>2725.0</ele></trkpt>
      <trkpt lat="45.513256" lon="7.227743"><ele>2693.3</ele></trkpt>
      <trkpt lat="45.513671" lon="7.224805"><ele>2664.4</ele></trkpt>
      <trkpt lat="45.514215" lon="7.223867"><ele>2649.5</ele></trkpt>
      <trkpt lat="45.514735" lon="7.221820"><ele>2610.1</ele></trkpt>
      <trkpt lat="45.514644" lon="7.220999"><ele>2590.4</ele></trkpt>
      <trkpt lat="45.514234" lon="7.221152"><ele>2580.3</ele></trkpt>
      <trkpt lat="45.514105" lon="7.220936"><ele>2567.3</ele></trkpt>
      <trkpt lat="45.514729" lon="7.219946"><ele>2551.0</ele></trkpt>
      <trkpt lat="45.514558" lon="7.218929"><ele>2526.0</ele></trkpt>
      <trkpt lat="45.514151" lon="7.218422"><ele>2513.0</ele></trkpt>
      <trkpt lat="45.514288" lon="7.216935"><ele>2454.4</ele></trkpt>
      <trkpt lat="45.514674" lon="7.216506"><ele>2432.3</ele></trkpt>
      <trkpt lat="45.514262" lon="7.215706"><ele>2404.9</ele></trkpt>
      <trkpt lat="45.514188" lon="7.213747"><ele>2363.1</ele></trkpt>
      <trkpt lat="45.514425" lon="7.212894"><ele>2326.5</ele></trkpt>
      <trkpt lat="45.514035" lon="7.212422"><ele>2308.7</ele></trkpt>
      <trkpt lat="45.514008" lon="7.211872"><ele>2284.7</ele></trkpt>
      <trkpt lat="45.514225" lon="7.211970"><ele>2278.5</ele></trkpt>
      <trkpt lat="45.514202" lon="7.211726"><ele>2270.3</ele></trkpt>
      <trkpt lat="45.514424" lon="7.211700"><ele>2261.6</ele></trkpt>
      <trkpt lat="45.514354" lon="7.211146"><ele>2242.9</ele></trkpt>
      <trkpt lat="45.514594" lon="7.211166"><ele>2231.4</ele></trkpt>
      <trkpt lat="45.514619" lon="7.210673"><ele>2216.0</ele></trkpt>
      <trkpt lat="45.514819" lon="7.210935"><ele>2205.4</ele></trkpt>
      <trkpt lat="45.515063" lon="7.210805"><ele>2191.9</ele></trkpt>
      <trkpt lat="45.514899" lon="7.210406"><ele>2182.3</ele></trkpt>
      <trkpt lat="45.515572" lon="7.209795"><ele>2118.9</ele></trkpt>
      <trkpt lat="45.515496" lon="7.209350"><ele>2103.0</ele></trkpt>
      <trkpt lat="45.515731" lon="7.209441"><ele>2100.6</ele></trkpt>
      <trkpt lat="45.515529" lon="7.208220"><ele>2059.3</ele></trkpt>
      <trkpt lat="45.515697" lon="7.208091"><ele>2058.3</ele></trkpt>
      <trkpt lat="45.515316" lon="7.206788"><ele>2023.7</ele></trkpt>
      <trkpt lat="45.515559" lon="7.205623"><ele>2006.4</ele></trkpt>
      <trkpt lat="45.516301" lon="7.205626"><ele>2002.1</ele></trkpt>
      <trkpt lat="45.516984" lon="7.205115"><ele>1997.8</ele></trkpt>
      <trkpt lat="45.517481" lon="7.205619"><ele>1995.8</ele></trkpt>
      <trkpt lat="45.518921" lon="7.205023"><ele>1989.6</ele></trkpt>
      <trkpt lat="45.519155" lon="7.204564"><ele>1988.6</ele></trkpt>
      <trkpt lat="45.520248" lon="7.204186"><ele>1984.3</ele></trkpt>
      <trkpt lat="45.520973" lon="7.203328"><ele>1981.4</ele></trkpt>
      <trkpt lat="45.522170" lon="7.202612"><ele>1975.2</ele></trkpt>
      <trkpt lat="45.524230" lon="7.202260"><ele>1968.0</ele></trkpt>
      <trkpt lat="45.524625" lon="7.200940"><ele>1966.5</ele></trkpt>
    </trkseg>
  </trk>
</gpx>
